{
    "links": {
        "self": "http://www.neowsapp.com/rest/v1/neo/3364452?api_key=iIulBulltgU6a56xZRHN4H3l9WmuAYTsLGpBGhQ2"
    },
    "id": "3364452",
    "neo_reference_id": "3364452",
    "name": "(2006 YD12)",
    "designation": "2006 YD12",
    "nasa_jpl_url": "http://ssd.jpl.nasa.gov/sbdb.cgi?sstr=3364452",
    "absolute_magnitude_h": 22.6,
    "estimated_diameter": {
        "kilometers": {
            "estimated_diameter_min": 0.0802703167,
            "estimated_diameter_max": 0.1794898848
        },
        "meters": {
            "estimated_diameter_min": 80.2703167283,
            "estimated_diameter_max": 179.4898847799
        },
        "miles": {
            "estimated_diameter_min": 0.049877647,
            "estimated_diameter_max": 0.1115298092
        },
        "feet": {
            "estimated_diameter_min": 263.3540659348,
            "estimated_diameter_max": 588.8775935812
        }
    },
    "is_potentially_hazardous_asteroid": false,
    "close_approach_data": [
        {
            "close_approach_date": "2007-01-02",
            "close_approach_date_full": "2007-Jan-02 09:39",
            "epoch_date_close_approach": 1167730740000,
            "relative_velocity": {
                "kilometers_per_second": "7.6453500058",
                "kilometers_per_hour": "27523.2600207765",
                "miles_per_hour": "17101.8834279097"
            },
            "miss_distance": {
                "astronomical": "0.0921951477",
                "lunar": "35.8639124553",
                "kilometers": "13792197.720255399",
                "miles": "8570074.2637425462"
            },
            "orbiting_body": "Earth"
        }
    ],
    "orbital_data": {
        "orbit_id": "12",
        "orbit_determination_date": "2017-04-06 09:07:16",
        "first_observation_date": "2006-12-23",
        "last_observation_date": "2007-02-21",
        "data_arc_in_days": 60,
        "observations_used": 86,
        "orbit_uncertainty": "8",
        "minimum_orbit_intersection": ".0442782",
        "jupiter_tisserand_invariant": "3.878",
        "epoch_osculation": "2454096.5",
        "eccentricity": ".4469569207916996",
        "semi_major_axis": "1.849485251971578",
        "inclination": "3.883950047272643",
        "ascending_node_longitude": "283.39673645",
        "orbital_period": "918.7021562442221",
        "perihelion_distance": "1.022845018700701",
        "perihelion_argument": "200.7618340612586",
        "aphelion_distance": "2.676125485242455",
        "perihelion_time": "2454119.221653007472",
        "mean_anomaly": "351.0963580230072",
        "mean_motion": ".3918571405902957",
        "equinox": "J2000",
        "orbit_class": {
            "orbit_class_type": "AMO",
            "orbit_class_description": "Near-Earth asteroid orbits similar to that of 1221 Amor",
            "orbit_class_range": "1.017 AU < q (perihelion) < 1.3 AU"
        }
    },
    "is_sentry_object": false
}